{"type": "FeatureCollection", "features": [ {"type": "Feature", "properties": {"norad_id": 28649, "name": "IRS-P5 (CARTOSAT-1)", "group": "resource", "lat": 71.67857007472814, "lon": -145.26129787588184, "alt_km": 589.3634575041569, "timestamp": "2025-12-10T14:53:36.779122+00:00", "meta": {"OBJECT_NAME": "IRS-P5 (CARTOSAT-1)", "OBJECT_ID": "2005-017A", "EPOCH": "2025-12-10T07:58:16.810464", "MEAN_MOTION": 14.90391268, "ECCENTRICITY": 0.00013607, "INCLINATION": 97.5498, "RA_OF_ASC_NODE": 10.8521, "ARG_OF_PERICENTER": 45.9839, "MEAN_ANOMALY": 314.1491, "EPHEMERIS_TYPE": 0, "CLASSIFICATION_TYPE": "U", "NORAD_CAT_ID": 28649, "ELEMENT_SET_NO": 999, "REV_AT_EPOCH": 11568, "BSTAR": 0.00022881188, "MEAN_MOTION_DOT": 2.175e-05, "MEAN_MOTION_DDOT": 0}, "tle": {"line1": "1 28649U 05017A   25344.33213901  .00002175  00000+0  22881-3 0  9990", "line2": "2 28649  97.5498  10.8521 0001360  45.9839 314.1491 14.90391268115685"}}, "geometry": {"type": "Point", "coordinates": [-145.26129787588184, 71.67857007472814]}}, {"type": "Feature", "properties": {"norad_id": 28893, "name": "SINAH 1", "group": "resource", "lat": -57.676047424478426, "lon": 126.44444897419395, "alt_km": 697.4812266035597, "timestamp": "2025-12-10T14:53:36.779131+00:00", "meta": {"OBJECT_NAME": "SINAH 1", "OBJECT_ID": "2005-043D", "EPOCH": "2025-12-10T06:57:35.693280", "MEAN_MOTION": 14.63958403, "ECCENTRICITY": 0.00152166, "INCLINATION": 98.2601, "RA_OF_ASC_NODE": 112.8407, "ARG_OF_PERICENTER": 144.2562, "MEAN_ANOMALY": 215.9662, "EPHEMERIS_TYPE": 0, "CLASSIFICATION_TYPE": "U", "NORAD_CAT_ID": 28893, "ELEMENT_SET_NO": 999, "REV_AT_EPOCH": 7288, "BSTAR": 0.00017248264, "MEAN_MOTION_DOT": 8.55e-06, "MEAN_MOTION_DDOT": 0}, "tle": {"line1": "1 28893U 05043D   25344.28999645  .00000855  00000+0  17248-3 0  9994", "line2": "2 28893  98.2601 112.8407 0015216 144.2562 215.9662 14.63958403 72889"}}, "geometry": {"type": "Point", "coordinates": [126.44444897419395, -57.676047424478426]}}, {"type": "Feature", "properties": {"norad_id": 29079, "name": "EROS B", "group": "resource", "lat": -58.76606028174051, "lon": -91.1916479227615, "alt_km": 372.7663298787311, "timestamp": "2025-12-10T14:53:36.779140+00:00", "meta": {"OBJECT_NAME": "EROS B", "OBJECT_ID": "2006-014A", "EPOCH": "2025-12-10T07:44:43.423584", "MEAN_MOTION": 15.67260192, "ECCENTRICITY": 0.00017419, "INCLINATION": 97.3478, "RA_OF_ASC_NODE": 100.7829, "ARG_OF_PERICENTER": 288.9721, "MEAN_ANOMALY": 71.1351, "EPHEMERIS_TYPE": 0, "CLASSIFICATION_TYPE": "U", "NORAD_CAT_ID": 29079, "ELEMENT_SET_NO": 999, "REV_AT_EPOCH": 9042, "BSTAR": 0.0018730961, "MEAN_MOTION_DOT": 0.00205556, "MEAN_MOTION_DDOT": 0}, "tle": {"line1": "1 29079U 06014A   25344.32272481  .00205556  00000+0  18731-2 0  9999", "line2": "2 29079  97.3478 100.7829 0001741 288.9721  71.1351 15.67260192 90426"}}, "geometry": {"type": "Point", "coordinates": [-91.1916479227615, -58.76606028174051]}}, {"type": "Feature", "properties": {"norad_id": 29228, "name": "RESURS-DK 1", "group": "resource", "lat": -31.529529427891674, "lon": -59.725446938458035, "alt_km": 531.6415080203387, "timestamp": "2025-12-10T14:53:36.779150+00:00", "meta": {"OBJECT_NAME": "RESURS-DK 1", "OBJECT_ID": "2006-021A", "EPOCH": "2025-12-10T07:36:01.525248", "MEAN_MOTION": 15.12139478, "ECCENTRICITY": 0.00074883, "INCLINATION": 69.9335, "RA_OF_ASC_NODE": 108.1, "ARG_OF_PERICENTER": 261.6043, "MEAN_ANOMALY": 98.4274, "EPHEMERIS_TYPE": 0, "CLASSIFICATION_TYPE": "U", "NORAD_CAT_ID": 29228, "ELEMENT_SET_NO": 999, "REV_AT_EPOCH": 7401, "BSTAR": 0.0002425432, "MEAN_MOTION_DOT": 4.087e-05, "MEAN_MOTION_DDOT": 0}, "tle": {"line1": "1 29228U 06021A   25344.31668432  .00004087  00000+0  24254-3 0  9991", "line2": "2 29228  69.9335 108.1000 0007488 261.6043  98.4274 15.12139478 74016"}}, "geometry": {"type": "Point", "coordinates": [-59.725446938458035, -31.529529427891674]}}, {"type": "Feature", "properties": {"norad_id": 29268, "name": "ARIRANG-2 (KOMPSAT-2)", "group": "resource", "lat": -22.60840500960402, "lon": -10.08689125986698, "alt_km": 688.0089833100601, "timestamp": "2025-12-10T14:53:36.779160+00:00", "meta": {"OBJECT_NAME": "ARIRANG-2 (KOMPSAT-2)", "OBJECT_ID": "2006-031A", "EPOCH": "2025-12-10T07:58:26.052672", "MEAN_MOTION": 14.64489431, "ECCENTRICITY": 0.00136369, "INCLINATION": 97.8261, "RA_OF_ASC_NODE": 172.9224, "ARG_OF_PERICENTER": 317.451, "MEAN_ANOMALY": 166.2619, "EPHEMERIS_TYPE": 0, "CLASSIFICATION_TYPE": "U", "NORAD_CAT_ID": 29268, "ELEMENT_SET_NO": 999, "REV_AT_EPOCH": 3383, "BSTAR": 8.6623512e-05, "MEAN_MOTION_DOT": 4.14e-06, "MEAN_MOTION_DDOT": 0}, "tle": {"line1": "1 29268U 06031A   25344.33224598  .00000414  00000+0  86624-4 0  9999", "line2": "2 29268  97.8261 172.9224 0013636 317.4510 166.2619 14.64489431 33831"}}, "geometry": {"type": "Point", "coordinates": [-10.08689125986698, -22.60840500960402]}}, {"type": "Feature", "properties": {"norad_id": 29709, "name": "LAPAN-TUBSAT", "group": "resource", "lat": -23.934734517193593, "lon": -21.630603015392808, "alt_km": 619.3828123873873, "timestamp": "2025-12-10T14:53:36.779170+00:00", "meta": {"OBJECT_NAME": "LAPAN-TUBSAT", "OBJECT_ID": "2007-001A", "EPOCH": "2025-12-10T06:55:12.432576", "MEAN_MOTION": 14.85666365, "ECCENTRICITY": 0.0013722, "INCLINATION": 98.1258, "RA_OF_ASC_NODE": 334.3943, "ARG_OF_PERICENTER": 81.2595, "MEAN_ANOMALY": 279.0173, "EPHEMERIS_TYPE": 0, "CLASSIFICATION_TYPE": "U", "NORAD_CAT_ID": 29709, "ELEMENT_SET_NO": 999, "REV_AT_EPOCH": 2310, "BSTAR": 0.00015851496, "MEAN_MOTION_DOT": 1.319e-05, "MEAN_MOTION_DDOT": 0}, "tle": {"line1": "1 29709U 07001A   25344.28833834  .00001319  00000+0  15851-3 0  9998", "line2": "2 29709  98.1258 334.3943 0013722  81.2595 279.0173 14.85666365 23101"}}, "geometry": {"type": "Point", "coordinates": [-21.630603015392808, -23.934734517193593]}}, {"type": "Feature", "properties": {"norad_id": 31113, "name": "HAIYANG-1B", "group": "resource", "lat": -78.56256550837809, "lon": 15.395836830088047, "alt_km": 801.8744322910434, "timestamp": "2025-12-10T14:53:36.779179+00:00", "meta": {"OBJECT_NAME": "HAIYANG-1B", "OBJECT_ID": "2007-010A", "EPOCH": "2025-12-10T05:12:28.449216", "MEAN_MOTION": 14.30963701, "ECCENTRICITY": 0.00143696, "INCLINATION": 98.3312, "RA_OF_ASC_NODE": 328.5993, "ARG_OF_PERICENTER": 44.9967, "MEAN_ANOMALY": 315.2378, "EPHEMERIS_TYPE": 0, "CLASSIFICATION_TYPE": "U", "NORAD_CAT_ID": 31113, "ELEMENT_SET_NO": 999, "REV_AT_EPOCH": 97360, "BSTAR": 9.8201765e-05, "MEAN_MOTION_DOT": 2.17e-06, "MEAN_MOTION_DDOT": 0}, "tle": {"line1": "1 31113U 07010A   25344.21699594  .00000217  00000+0  98202-4 0  9994", "line2": "2 31113  98.3312 328.5993 0014369  44.9967 315.2378 14.30963701973606"}}, "geometry": {"type": "Point", "coordinates": [15.395836830088047, -78.56256550837809]}}, {"type": "Feature", "properties": {"norad_id": 31598, "name": "COSMO-SKYMED 1", "group": "resource", "lat": -35.08110155767478, "lon": -15.578629562742575, "alt_km": 586.8698727829906, "timestamp": "2025-12-10T14:53:36.779189+00:00", "meta": {"OBJECT_NAME": "COSMO-SKYMED 1", "OBJECT_ID": "2007-023A", "EPOCH": "2025-12-10T07:30:41.375232", "MEAN_MOTION": 14.95734223, "ECCENTRICITY": 0.00010569, "INCLINATION": 97.8835, "RA_OF_ASC_NODE": 169.6965, "ARG_OF_PERICENTER": 85.0865, "MEAN_ANOMALY": 275.0476, "EPHEMERIS_TYPE": 0, "CLASSIFICATION_TYPE": "U", "NORAD_CAT_ID": 31598, "ELEMENT_SET_NO": 999, "REV_AT_EPOCH": 154, "BSTAR": 0.00050733848, "MEAN_MOTION_DOT": 5.595e-05, "MEAN_MOTION_DDOT": 0}, "tle": {"line1": "1 31598U 07023A   25344.31297888  .00005595  00000+0  50734-3 0  9997", "line2": "2 31598  97.8835 169.6965 0001056  85.0865 275.0476 14.95734223  1545"}}, "geometry": {"type": "Point", "coordinates": [-15.578629562742575, -35.08110155767478]}}, {"type": "Feature", "properties": {"norad_id": 31698, "name": "TERRASAR-X", "group": "resource", "lat": 52.32586612921471, "lon": -19.717874386750665, "alt_km": 502.39473287395504, "timestamp": "2025-12-10T14:53:36.779198+00:00", "meta": {"OBJECT_NAME": "TERRASAR-X", "OBJECT_ID": "2007-026A", "EPOCH": "2025-12-09T11:47:13.204320", "MEAN_MOTION": 15.19146544, "ECCENTRICITY": 0.0001961, "INCLINATION": 97.4451, "RA_OF_ASC_NODE": 348.9193, "ARG_OF_PERICENTER": 86.8081, "MEAN_ANOMALY": 273.3378, "EPHEMERIS_TYPE": 0, "CLASSIFICATION_TYPE": "U", "NORAD_CAT_ID": 31698, "ELEMENT_SET_NO": 999, "REV_AT_EPOCH": 2442, "BSTAR": 0.00012751, "MEAN_MOTION_DOT": 2.611e-05, "MEAN_MOTION_DDOT": 0}, "tle": {"line1": "1 31698U 07026A   25343.49112505  .00002611  00000+0  12751-3 0  9994", "line2": "2 31698  97.4451 348.9193 0001961  86.8081 273.3378 15.19146544 24429"}}, "geometry": {"type": "Point", "coordinates": [-19.717874386750665, 52.32586612921471]}}, {"type": "Feature", "properties": {"norad_id": 32060, "name": "WORLDVIEW-1 (WV-1)", "group": "resource", "lat": 12.154810811107588, "lon": 100.53077257839892, "alt_km": 493.2807139356928, "timestamp": "2025-12-10T14:53:36.779226+00:00", "meta": {"OBJECT_NAME": "WORLDVIEW-1 (WV-1)", "OBJECT_ID": "2007-041A", "EPOCH": "2025-12-10T06:57:50.791680", "MEAN_MOTION": 15.24623427, "ECCENTRICITY": 7.254e-05, "INCLINATION": 97.3835, "RA_OF_ASC_NODE": 101.8056, "ARG_OF_PERICENTER": 104.6633, "MEAN_ANOMALY": 255.4685, "EPHEMERIS_TYPE": 0, "CLASSIFICATION_TYPE": "U", "NORAD_CAT_ID": 32060, "ELEMENT_SET_NO": 999, "REV_AT_EPOCH": 1410, "BSTAR": 0.00052474376, "MEAN_MOTION_DOT": 0.00012888, "MEAN_MOTION_DDOT": 0}, "tle": {"line1": "1 32060U 07041A   25344.29017120  .00012888  00000+0  52474-3 0  9994", "line2": "2 32060  97.3835 101.8056 0000725 104.6633 255.4685 15.24623427 14103"}}, "geometry": {"type": "Point", "coordinates": [100.53077257839892, 12.154810811107588]}}]}